APRIZESAT 2             
1 28366U 04025A   26186.23643342  .00000326  00000+0  11418-3 0  9994
2 28366  98.1032 351.1965 0105242 194.9183 164.8894 14.38044552154230
SAUDICOMSAT 1           
1 28369U 04025D   26185.75265677  .00000573  00000+0  14231-3 0  9994
2 28369  98.5771 196.3581 0031500 331.7707  28.1781 14.55488986166689
SAUDICOMSAT 2           
1 28370U 04025E   26185.03170394  .00000269  00000+0  80818-4 0  9995
2 28370  98.6639 197.7542 0054858 207.6478 152.1795 14.49990206162544
APRIZESAT 1             
1 28372U 04025G   26185.86960272  .00000401  00000+0  11039-3 0  9996
2 28372  98.6304 197.0763 0045765 101.2399 259.3944 14.51788198164479
NANOSAT-1               
1 28493U 04049B   26185.60998572  .00001417  00000+0  19377-3 0  9993
2 28493  98.2299 322.6991 0003027 222.7268 137.3708 14.80196714158026
SAUDICOMSAT 7           
1 31119U 07012C   26185.72082549  .00000782  00000+0  14848-3 0  9998
2 31119  98.3788 160.2122 0056496 140.4795 220.0549 14.66129248 25006
SAUDICOMSAT 6           
1 31121U 07012E   26186.15133059  .00000641  00000+0  13212-3 0  9990
2 31121  98.4108 154.0032 0070364 270.9625  88.3514 14.62578831 22813
SAUDICOMSAT 5           
1 31124U 07012H   26185.87418760  .00001008  00000+0  18123-3 0  9990
2 31124  98.3500 161.1120 0048661  70.5238 290.1214 14.68182931 26190
SAUDICOMSAT 3           
1 31125U 07012J   26185.66794474  .00001311  00000+0  22136-3 0  9993
2 31125  98.3154 161.4486 0039069 358.8257   1.2851 14.70739109 27398
SAUDICOMSAT 4           
1 31127U 07012L   26185.71354460  .00000631  00000+0  12557-3 0  9998
2 31127  98.3994 158.6424 0062820 202.5791 157.2645 14.64529279 23859
APRIZESAT 4             
1 35684U 09041D   26185.99146067  .00001007  00000+0  12649-3 0  9996
2 35684  98.1407 261.6666 0041908 263.6179  96.0261 14.83904740914004
APRIZESAT 3             
1 35686U 09041F   26185.68673844  .00001745  00000+0  15458-3 0  9992
2 35686  98.2081 339.7511 0061704  10.3583 349.8892 14.96290082918995
S-NET D                 
1 43186U 18014G   26186.20836720  .00008629  00000+0  44154-3 0  9992
2 43186  97.5341  90.8867 0006951 327.3862  32.6941 15.16854579461493
S-NET B                 
1 43187U 18014H   26185.69241820  .00008235  00000+0  42195-3 0  9992
2 43187  97.5347  90.3608 0007514 323.0638  37.0076 15.16815424461414
S-NET A                 
1 43188U 18014J   26185.54746846  .00008627  00000+0  44143-3 0  9995
2 43188  97.5358  90.4292 0007403 324.7802  35.2940 15.16853002461396
S-NET C                 
1 43189U 18014K   26185.69638399  .00008996  00000+0  46057-3 0  9990
2 43189  97.5376  90.6544 0008609 314.0409  46.0114 15.16809075459967
SALSAT                  
1 46495U 20068K   26185.73936093  .00013612  00000+0  46989-3 0  9997
2 46495  97.8855 189.8756 0008222 233.3566 126.6918 15.30063013318049
OOV-CUBE (TUBSAT-30)    
1 60240U 24128F   26186.08717039  .00003194  00000+0  24825-3 0  9997
2 60240  61.9939 163.1528 0042380 137.7206 222.7166 15.02845362108809
LPNTSAT-001 (IOD-1)     
1 68408U 26065A   26185.47250852  .00004030  00000+0  19741-3 0  9991
2 68408  97.3992  65.6155 0014975 308.0937  51.8946 15.18630171 14888
